#dP2022  7 15  6  0  0.00000000      96 __u+U ITR00 EXT  IAC
## 2218 453600.00000000   900.00000000 59775 0.2500000000000
+  115   C06C07C08C09C10C11C12C13C14C16C19C20C21C22C23C24C25
+        C26C27C28C29C30C32C33C34C35C36C37C38C39C40C41C42C43
+        C44C45C46E01E02E03E04E05E07E08E09E10E11E12E13E14E15
+        E18E19E21E24E25E26E27E30E31E33E34E36G01G03G04G05G06
+        G07G08G09G10G11G12G13G14G15G16G17G18G19G20G21G22G23
+        G24G25G26G27G28G29G30G31G32J02J03R01R02R03R04R05R07
+        R08R09R11R12R13R14R15R17R18R19R20R21R24  0  0  0  0
++         9  9 10 10  8  8  9 10  9  9  8  8  8  9  9 10 10
++         8 10  8  8  7 10  8 10 10  9  8 10  9 10  9  8  8
++         8  9 10  7  7  8  8  8  8  8  8 10  8  9  8  8  8
++        10  9  8  8  8  8  8  7  8  8  8  9  8  7  9  7  8
++         8  7  7  8  8  8  8  8  8  7  9  8  8  8  8  9  9
++         8  7  7  8  8  8  8  8  8 10  9  9  9  9  9 10  8
++         8  7  9  8  8  7  9 10  9  9 10  8  9  0  0  0  0
%c M  cc GPS ccc cccc cccc cccc cccc ccccc ccccc ccccc ccccc
%c cc cc ccc ccc cccc cccc cccc cccc ccccc ccccc ccccc ccccc
%f  0.0000000  0.000000000  0.00000000000  0.000000000000000
%f  0.0000000  0.000000000  0.00000000000  0.000000000000000
%i    0    0    0    0      0      0      0      0         0
%i    0    0    0    0      0      0      0      0         0
/* IAC                                ULTRA-RAPID PREDICTION
/* S/V CLOCKS ARE ALIGNED TO GNSS TIME                      
/* G:C1WC2W R:C1PC2P E:C1XC5X C:C2IC6I J:C1CC2S             
/* PCV:IGS14_2215 OL/AL:FES2004  NONE     YN ORB:CoN CLK:CoN
*  2022 07 15 21 15  0.00000000
PC06 -11009.486448  40528.649991  -1647.003588    401.436343
PC07  -2353.296829  29559.818718  30050.041812   -433.873541
PC08 -16416.581304  23887.492052 -30695.028455    405.455441
PC09  -6848.057066  40852.650173   6614.474267   -926.709443
PC10   4477.984460  31930.364318  27680.161561    118.149894
PC11   8150.453488 -26158.150913  -5138.356211    476.520456
PC12  15220.363737 -12794.756037 -19542.734579   -576.252390
PC13 -10910.317050  25104.705383 -32036.035827     24.969034
PC14   3165.698452 -16843.951215  22028.905601    543.001717
PC16 -12112.909218  40015.152529  -3918.316121    143.128950
PC19   6783.527750  20648.660630 -17492.994445   -217.324758
PC20 -10721.409887  11595.912984 -22994.639864   -963.913488
PC21  22990.680670   5138.465306  14994.817799   -684.887542
PC22  21098.686927  18216.110241  -1650.503270   -962.862065
PC23 -15697.894371  -9963.021116 -20797.221718   -945.903965
PC24  22028.030895 -14974.901880  -8288.672447   -967.779606
PC25   3023.284745 -17811.715750 -21266.760950   -707.112849
PC26  26330.726545  -4979.226769   7719.217167    709.056483
PC27 -16244.404559   2861.613126  22483.891477    754.749602
PC28 -10814.664754 -16937.584723  19357.358567     90.383745
PC29   -392.765369  27569.614662  -4321.723064    582.147051
PC30 -12016.988162  21325.976712  13372.801456    501.111238
PC32 -23030.497534  -5008.984495 -14917.688729   -972.504527
PC33  -6747.820674 -20594.504334  17572.505862   -174.004485
PC34  11603.656349 -22096.960072 -12517.739856   -358.079318
PC35  10897.710594  17633.116368 -18682.200768    367.427162
PC36  -4054.135562  17847.778962  21096.119224   -973.166863
PC37 -26258.719985   3507.953672  -8779.210739   -917.387826
PC38 -23058.452170  25452.450587 -24552.563893     10.355024
PC39 -13643.172547  38323.123854 -10646.645455     -0.076811
PC40  -5858.367899  24495.518506  33837.912993     -0.639285
PC41 -20874.032945 -18390.557321   2212.565436    -83.417181
PC42  11782.652042 -10798.753792  22919.202580   -953.568078
PC43    978.069645 -27666.421323   3579.622558      3.116274
PC44  16281.910446  -3220.934610 -22453.054828    725.163646
PC45  15939.720584   9667.593202  20768.672141    809.837793
PC46 -21005.060781  15603.929957   9755.769144   -433.769608
PE01 -25527.561549   5638.037291  13889.292393   -515.824621
PE02  25417.909043  -5748.097706 -14023.936397    312.163703
PE03  14426.515374  -9536.284909  24023.519777   -579.356036
PE04  -1433.105636  25385.305350 -15150.082396  -1072.167027
PE05  19188.429599  12235.858486  18936.628413   -162.654677
PE07 -12714.632102 -26563.575841  -2909.086765   -687.820164
PE08   1152.082118 -25431.735955  15094.205383   -564.239425
PE09  12798.066375  26538.855417   2942.407785   -588.821590
PE10  -4749.360068  23844.152247 -16904.510826   -500.781659
PE11   4525.506053  18272.457050 -22857.872107   2997.531093
PE12 -12756.139592  25278.357583  -8616.232535    -63.940731
PE13  -3847.429968 -18736.085500  22585.233046    429.822268
PE14  21004.911652   2756.025941 -24029.703230  -1778.090073
PE15  12852.509439 -25288.042285   8455.466732    733.045783
PE18 -13806.414184   8807.743937  18363.457053  -1210.076552
PE19 -15496.375687   6775.631520 -24283.614498  -5083.737913
PE21 -28701.289052  -6508.568176  -3158.553636   -746.107673
PE24  14463.365170  16178.137976  20114.919369   -726.779041
PE25  28625.589980   6699.776994   3452.822464   -581.179620
PE26 -18738.162114   -446.980575  22905.474584  -1381.006944
PE27 -15670.217899 -15808.866844 -19505.950838   -345.604545
PE30   7564.987919 -15495.426206 -24061.338047   -675.091323
PE31  -6467.700158  15729.464612  24238.070999   -499.981118
PE33 -21879.576234  16893.444273  10576.274225   -454.677346
PE34  21829.323886 -17055.045764 -10430.035354   -486.025349
PE36  18158.512524   1243.078537 -23350.115868   -402.673719
PG01 -11983.952594  21341.820857 -10172.438809    320.761550
PG03  -5688.596223  13938.321247 -21993.296883   -308.041218
PG04  -3000.934834  23410.634109 -12079.948017   -145.487582
PG05  19624.567154  -7383.416816  16216.960942    -89.262740
PG06  17520.423440    993.748783 -19903.756417    386.353963
PG07   2906.686564  17457.973641  20069.776153    319.160216
PG08  -7710.441499  17732.783765  18008.560887    -76.332164
PG09   6140.592337  25738.026546  -2149.640780   -318.686833
PG10 -22494.741062 -11711.514467   8538.428314   -493.076985
PG11  22076.076176  -9903.353728 -10929.308357    -10.688043
PG12   9489.733817 -12522.373451 -21667.751748   -246.952380
PG13  13484.556224  -8373.757797  21108.984835    349.104023
PG14  21065.234227  13261.410069   9412.130121   -111.779558
PG15   6056.712909 -18692.540725  17307.238730    -45.151608
PG16 -23547.694522    696.804226  12430.332658   -515.519563
PG17  12850.956141  19107.493541 -12753.892894    637.255065
PG18  -2039.075585 -17209.778993  20081.049012    112.269453
PG19  15044.150194  10869.535080 -19342.549368    184.174805
PG20  25769.676724  -1709.069041   5658.790053    502.936128
PG21 -17216.789861  19707.656956    891.425198    161.095626
PG22 -15499.565343  -7974.702194 -19674.115507    292.943477
PG23 -14143.554097 -15021.920098  16778.582158    -33.064513
PG24  13246.866677 -22178.404868  -5437.809442    196.039224
PG25  -5808.394355 -16340.482750 -20474.447400    349.561618
PG26 -26397.662550  -3418.109905   2386.474865    218.409097
PG27 -14224.213140   4339.374373  21786.093547    220.717498
PG28  24548.410454   9763.766773   1290.683789    334.680747
PG29  -4034.020654 -26155.900279  -1727.606857   -533.870573
PG30  12263.938881  10068.752183  21400.647078   -534.054119
PG31 -19549.585961    941.368320 -18294.812453   -185.887920
PG32 -15251.659452 -16193.169897 -14504.460118   -177.206099
PJ02 -30154.823639  21999.217219  24563.468667     -1.733920
PJ03 -29205.066554  28636.225409  15566.986345     -0.140975
PR01  18525.627784  16831.752936   4959.230811     11.534806
PR02  14972.939403   2706.407434  20497.269827    524.219413
PR03   3078.744718 -12428.281904  22116.218738     60.274578
PR04 -10329.975627 -20297.665459  11525.826213    150.768225
PR05 -18030.694132 -17219.901323  -5433.739303     96.289124
PR07  -2511.761776  12880.564307 -21825.221583     37.912067
PR08  10503.962485  20289.259074 -11260.299304    -66.214480
PR09 -24832.597602   5624.555412    513.038191     65.961022
PR11   1363.658013  10874.246461  23047.077212     33.192502
PR12  19397.371856   3986.510460  16100.821950     19.314278
PR13  25031.112163  -4833.557652    909.562374    -24.642935
PR14  15853.751866 -11359.157155 -16435.426445     24.866580
PR15  -2259.084890 -10799.821986 -22973.052491     94.673357
PR17  10681.997999 -22382.931628  -5868.684102    543.803902
PR18   3056.963571 -22900.293758  10870.833696     32.994891
PR19  -5307.557025 -12639.995541  21500.975851   -196.432464
PR20 -12931.926514   8183.827992  20395.397266    -74.649638
PR21 -10268.223439  22963.492261   4322.503630   -317.677225
PR24  13179.358933  -9082.858005 -19845.750646    103.752457
EOF
